{"fetched_at":"2026-07-12T17:33:13.054Z","source":"https://celestrak.org/NORAD/elements/gp.php?NAME=WORLDVIEW&FORMAT=JSON","constellation":"worldview","records":[{"OBJECT_NAME":"WORLDVIEW-1 (WV-1)","OBJECT_ID":"2007-041A","EPOCH":"2026-07-12T11:57:40.674816","CLASSIFICATION_TYPE":"U","MEAN_MOTION":15.24540307,"ECCENTRICITY":0.0001277,"INCLINATION":97.3898,"RA_OF_ASC_NODE":312.8858,"ARG_OF_PERICENTER":220.02,"MEAN_ANOMALY":140.0944,"EPHEMERIS_TYPE":0,"NORAD_CAT_ID":32060,"ELEMENT_SET_NO":999,"REV_AT_EPOCH":4673,"BSTAR":0.00014528,"MEAN_MOTION_DOT":0.00003504,"MEAN_MOTION_DDOT":0},{"OBJECT_NAME":"WORLDVIEW-2 (WV-2)","OBJECT_ID":"2009-055A","EPOCH":"2026-07-12T11:50:00.619872","CLASSIFICATION_TYPE":"U","MEAN_MOTION":14.37906465,"ECCENTRICITY":0.0005204,"INCLINATION":98.4757,"RA_OF_ASC_NODE":266.5981,"ARG_OF_PERICENTER":136.3557,"MEAN_ANOMALY":223.8042,"EPHEMERIS_TYPE":0,"NORAD_CAT_ID":35946,"ELEMENT_SET_NO":999,"REV_AT_EPOCH":87928,"BSTAR":0.000024933,"MEAN_MOTION_DOT":3.2e-7,"MEAN_MOTION_DDOT":0},{"OBJECT_NAME":"WORLDVIEW-3 (WV-3)","OBJECT_ID":"2014-048A","EPOCH":"2026-07-12T12:02:54.796704","CLASSIFICATION_TYPE":"U","MEAN_MOTION":14.85061647,"ECCENTRICITY":0.0001096,"INCLINATION":97.8558,"RA_OF_ASC_NODE":267.9847,"ARG_OF_PERICENTER":159.8366,"MEAN_ANOMALY":200.2892,"EPHEMERIS_TYPE":0,"NORAD_CAT_ID":40115,"ELEMENT_SET_NO":999,"REV_AT_EPOCH":64566,"BSTAR":0.000053536,"MEAN_MOTION_DOT":0.00000404,"MEAN_MOTION_DDOT":0}]}
