WORLDVIEW-1 (WV-1)      
1 32060U 07041A   26193.49838744  .00003504  00000+0  14528-3 0  9995
2 32060  97.3898 312.8858 0001277 220.0200 140.0944 15.24540307 46738
WORLDVIEW-2 (WV-2)      
1 35946U 09055A   26193.49306273  .00000032  00000+0  24933-4 0  9990
2 35946  98.4757 266.5981 0005204 136.3557 223.8042 14.37906465879287
WORLDVIEW-3 (WV-3)      
1 40115U 14048A   26193.50202311  .00000404  00000+0  53536-4 0  9996
2 40115  97.8558 267.9847 0001096 159.8366 200.2892 14.85061647645664
